OBJECT_NAME,OBJECT_ID,EPOCH,MEAN_MOTION,ECCENTRICITY,INCLINATION,RA_OF_ASC_NODE,ARG_OF_PERICENTER,MEAN_ANOMALY,EPHEMERIS_TYPE,CLASSIFICATION_TYPE,NORAD_CAT_ID,ELEMENT_SET_NO,REV_AT_EPOCH,BSTAR,MEAN_MOTION_DOT,MEAN_MOTION_DDOT
EUTELSAT 33F,2006-032A,2026-06-15T13:13:06.261024,1.00269458,.00036633,1.6576,82.2608,0.1989,52.7403,0,U,29270,999,4729,0,.157E-5,0
JCSAT-3A,2006-033A,2026-06-15T14:11:10.500000,1.00269868,.00018816,0.0114,19.3771,73.4644,151.8211,0,U,29272,999,4772,0,-.343E-5,0
KOREASAT 5 (MUGUNGWHA 5),2006-034A,2026-06-15T13:35:57.581088,1.00270491,.0001387,1.7814,83.0053,52.1838,85.7125,0,U,29349,999,4130,0,-.357E-5,0
DIRECTV 9S,2006-043A,2026-06-15T12:34:47.434368,1.00270809,.00048425,2.4167,80.9209,11.9053,258.4865,0,U,29494,999,5136,0,-.113E-5,0
OPTUS D1,2006-043B,2026-06-15T12:28:38.731008,1.00269680,.00033255,3.0308,79.6748,359.4161,163.8505,0,U,29495,999,7210,0,-.184E-5,0
BADR-4,2006-051A,2026-06-15T13:13:28.725024,1.00270055,.00047067,2.0008,81.1376,354.0684,61.4327,0,U,29526,999,5125,0,.157E-5,0
WILDBLUE-1,2006-054A,2026-06-15T12:31:55.209792,1.00270479,.00012384,2.7990,80.5029,1.6020,258.4733,0,U,29643,999,5377,0,-.48E-6,0
SKYNET 5A,2007-007B,2026-06-15T06:40:11.247744,1.00269849,.0004061,5.2959,73.7650,16.6925,8.3622,0,U,30794,999,7068,0,-.271E-5,0
ANIK F3,2007-009A,2026-06-15T12:29:47.913216,1.00271704,.00024137,1.1934,83.8666,358.3993,250.2457,0,U,31102,999,4654,0,.1E-7,0
ASTRA 1L,2007-016A,2026-06-15T11:13:58.516032,1.00271394,.00051084,1.3176,81.5906,10.5779,315.6017,0,U,31306,999,4496,0,-.182E-5,0
GALAXY 17 (G-17),2007-016B,2026-06-15T09:14:01.086720,1.00269116,.00044107,2.9676,79.9207,19.1380,218.0942,0,U,31307,999,6978,0,-.205E-5,0
INTELSAT 11 (IS-11),2007-044B,2026-06-15T13:41:34.541952,0.99051525,.00022696,3.5615,78.6883,91.1801,72.3506,0,U,32253,999,6843,0,-.267E-5,0
WGS F1 (USA 195),2007-046A,2026-06-15T11:08:51.505728,1.00268338,.00002476,0.0443,89.3363,298.4291,0.6996,0,U,32258,999,5231,0,-.265E-5,0
SKYNET 5B,2007-056B,2026-06-15T11:28:04.664064,1.00273952,.00039981,5.2480,73.5269,4.4441,22.9039,0,U,32294,999,6818,0,.139E-5,0
ASTRA 4A,2007-057A,2026-06-15T13:04:52.051296,1.00271153,.00020882,0.0118,5.1064,82.4568,17.2744,0,U,32299,999,5163,0,.35E-6,0
HORIZONS-2,2007-063B,2026-06-15T12:42:39.180960,1.00268917,.0003713,2.5981,80.6451,1.1884,298.8458,0,U,32388,999,6779,0,-.253E-5,0
THURAYA-3,2008-001A,2026-06-14T21:38:21.316704,1.00007360,.0001577,5.9854,35.7965,160.2509,109.9206,0,U,32404,999,6746,0,-.67E-6,0
THOR 5,2008-006A,2026-06-15T07:55:26.787360,1.00270789,.00022691,0.0217,264.3194,186.5679,290.8311,0,U,32487,999,6729,0,-.6E-7,0
AMC-14,2008-011A,2026-06-15T03:12:21.511584,1.00354559,.00458589,24.0020,20.5439,7.0162,348.9348,0,U,32708,999,6814,0,-.52E-6,0
DIRECTV 11,2008-013A,2026-06-14T22:54:02.204352,1.00270145,.00004947,0.0094,269.4466,94.4042,143.7272,0,U,32729,999,4557,0,-.12E-5,0
ICO G1,2008-016A,2026-06-15T03:58:38.588160,1.00272276,.00022846,5.5332,36.1528,39.0948,155.0148,0,U,32763,999,6652,0,-.172E-5,0
VINASAT-1,2008-018A,2026-06-15T14:13:49.908000,1.00270807,.0001138,0.0109,332.1867,120.7513,156.3497,0,U,32767,999,6657,0,-.326E-5,0
STAR ONE C2,2008-018B,2026-06-15T10:28:10.208064,1.00269511,.00024809,1.2368,82.4760,11.1284,262.1600,0,U,32768,999,6663,0,-.274E-5,0
AMOS-3,2008-022A,2026-06-15T13:14:21.142176,1.00474545,.00020454,0.4514,86.2446,73.5377,340.3258,0,U,32794,999,8232,0,.147E-5,0
GALAXY 18 (G-18),2008-024A,2026-06-15T12:28:33.032928,1.00271904,.00026869,0.0178,15.0615,69.6700,243.2065,0,U,32951,999,4583,0,.28E-6,0
ZHONGXING-9,2008-028A,2026-06-15T11:46:55.856064,1.00270031,.00039638,0.7635,85.3704,338.5791,108.9462,0,U,33051,999,6602,0,-.246E-5,0
SKYNET 5C,2008-030A,2026-06-15T09:32:59.269344,1.00271673,.00038431,3.7846,77.0607,15.5881,296.4859,0,U,33055,999,6593,0,-.14E-5,0
TURKSAT 3A,2008-030B,2026-06-15T13:15:36.021600,1.00269620,.00050413,0.0532,79.1721,349.8398,75.7041,0,U,33056,999,5234,0,.149E-5,0
INTELSAT 25 (IS-25),2008-034A,2026-06-15T13:40:19.661664,0.99035535,.00032193,2.7059,80.3909,60.2072,97.1895,0,U,33153,999,6567,0,-.25E-5,0
ECHOSTAR 11,2008-035A,2026-06-15T12:32:17.673792,1.00271610,.00024622,1.0010,84.1900,336.7411,281.1645,0,U,33207,999,5119,0,-.56E-6,0
SUPERBIRD-C2,2008-038A,2026-06-15T13:42:26.958240,1.00273442,.00058376,2.3571,81.2818,24.2094,139.9493,0,U,33274,999,10571,0,-.305E-5,0
INMARSAT 4-F3,2008-039A,2026-06-15T12:35:39.850656,1.00271993,.00028594,4.2912,31.6212,55.8115,267.2906,0,U,33278,999,4652,0,-.141E-5,0
