EUTELSAT 33F            
1 29270U 06032A   26166.55076691  .00000157  00000+0  00000+0 0  9992
2 29270   1.6576  82.2608 0003663   0.1989  52.7403  1.00269458 47296
JCSAT-3A                
1 29272U 06033A   26166.59109375 -.00000343  00000+0  00000+0 0  9993
2 29272   0.0114  19.3771 0001881  73.4644 151.8211  1.00269868 47723
KOREASAT 5 (MUGUNGWHA 5)
1 29349U 06034A   26166.56663867 -.00000357  00000+0  00000+0 0  9992
2 29349   1.7814  83.0053 0001387  52.1838  85.7125  1.00270491 41305
DIRECTV 9S              
1 29494U 06043A   26166.52416012 -.00000113  00000+0  00000+0 0  9997
2 29494   2.4167  80.9209 0004842  11.9053 258.4865  1.00270809 51365
OPTUS D1                
1 29495U 06043B   26166.51989272 -.00000184  00000+0  00000+0 0  9998
2 29495   3.0308  79.6748 0003325 359.4161 163.8505  1.00269680 72108
BADR-4                  
1 29526U 06051A   26166.55102691  .00000157  00000+0  00000+0 0  9997
2 29526   2.0008  81.1376 0004706 354.0684  61.4327  1.00270055 51255
WILDBLUE-1              
1 29643U 06054A   26166.52216678 -.00000048  00000+0  00000+0 0  9998
2 29643   2.7990  80.5029 0001238   1.6020 258.4733  1.00270479 53774
SKYNET 5A               
1 30794U 07007B   26166.27790796 -.00000271  00000+0  00000+0 0  9994
2 30794   5.2959  73.7650 0004061  16.6925   8.3622  1.00269849 70684
ANIK F3                 
1 31102U 07009A   26166.52069344  .00000001  00000+0  00000+0 0  9996
2 31102   1.1934  83.8666 0002413 358.3993 250.2457  1.00271704 46540
ASTRA 1L                
1 31306U 07016A   26166.46803838 -.00000182  00000+0  00000+0 0  9998
2 31306   1.3176  81.5906 0005108  10.5779 315.6017  1.00271394 44968
GALAXY 17 (G-17)        
1 31307U 07016B   26166.38473480 -.00000205  00000+0  00000+0 0  9992
2 31307   2.9676  79.9207 0004410  19.1380 218.0942  1.00269116 69783
INTELSAT 11 (IS-11)     
1 32253U 07044B   26166.57053868 -.00000267  00000+0  00000+0 0  9997
2 32253   3.5615  78.6883 0002269  91.1801  72.3506  0.99051525 68436
WGS F1 (USA 195)        
1 32258U 07046A   26166.46448502 -.00000265  00000+0  00000+0 0  9993
2 32258   0.0443  89.3363 0000247 298.4291   0.6996  1.00268338 52315
SKYNET 5B               
1 32294U 07056B   26166.47783176  .00000139  00000+0  00000+0 0  9993
2 32294   5.2480  73.5269 0003998   4.4441  22.9039  1.00273952 68186
ASTRA 4A                
1 32299U 07057A   26166.54504689  .00000035  00000+0  00000+0 0  9992
2 32299   0.0118   5.1064 0002088  82.4568  17.2744  1.00271153 51634
HORIZONS-2              
1 32388U 07063B   26166.52962015 -.00000253  00000+0  00000+0 0  9990
2 32388   2.5981  80.6451 0003713   1.1884 298.8458  1.00268917 67798
THURAYA-3               
1 32404U 08001A   26165.90163561 -.00000067  00000+0  00000+0 0  9995
2 32404   5.9854  35.7965 0001577 160.2509 109.9206  1.00007360 67461
THOR 5                  
1 32487U 08006A   26166.33017115 -.00000006  00000+0  00000+0 0  9995
2 32487   0.0217 264.3194 0002269 186.5679 290.8311  1.00270789 67298
AMC-14                  
1 32708U 08011A   26166.13358231 -.00000052  00000+0  00000+0 0  9993
2 32708  24.0020  20.5439 0045858   7.0162 348.9348  1.00354559 68149
DIRECTV 11              
1 32729U 08013A   26165.95419218 -.00000120  00000+0  00000+0 0  9996
2 32729   0.0094 269.4466 0000494  94.4042 143.7272  1.00270145 45572
ICO G1                  
1 32763U 08016A   26166.16572440 -.00000172  00000+0  00000+0 0  9995
2 32763   5.5332  36.1528 0002284  39.0948 155.0148  1.00272276 66525
VINASAT-1               
1 32767U 08018A   26166.59293875 -.00000326  00000+0  00000+0 0  9991
2 32767   0.0109 332.1867 0001138 120.7513 156.3497  1.00270807 66573
STAR ONE C2             
1 32768U 08018B   26166.43622926 -.00000274  00000+0  00000+0 0  9990
2 32768   1.2368  82.4760 0002480  11.1284 262.1600  1.00269511 66639
AMOS-3                  
1 32794U 08022A   26166.55163359  .00000147  00000+0  00000+0 0  9995
2 32794   0.4514  86.2446 0002045  73.5377 340.3258  1.00474545 82324
GALAXY 18 (G-18)        
1 32951U 08024A   26166.51982677  .00000028  00000+0  00000+0 0  9998
2 32951   0.0178  15.0615 0002686  69.6700 243.2065  1.00271904 45832
ZHONGXING-9             
1 33051U 08028A   26166.49092426 -.00000246  00000+0  00000+0 0  9998
2 33051   0.7635  85.3704 0003963 338.5791 108.9462  1.00270031 66027
SKYNET 5C               
1 33055U 08030A   26166.39790821 -.00000140  00000+0  00000+0 0  9991
2 33055   3.7846  77.0607 0003843  15.5881 296.4859  1.00271673 65932
TURKSAT 3A              
1 33056U 08030B   26166.55250025  .00000149  00000+0  00000+0 0  9995
2 33056   0.0532  79.1721 0005041 349.8398  75.7041  1.00269620 52344
INTELSAT 25 (IS-25)     
1 33153U 08034A   26166.56967201 -.00000250  00000+0  00000+0 0  9993
2 33153   2.7059  80.3909 0003219  60.2072  97.1895  0.99035535 65673
ECHOSTAR 11             
1 33207U 08035A   26166.52242678 -.00000056  00000+0  00000+0 0  9998
2 33207   1.0010  84.1900 0002462 336.7411 281.1645  1.00271610 51191
SUPERBIRD-C2            
1 33274U 08038A   26166.57114535 -.00000305  00000+0  00000+0 0  9997
2 33274   2.3571  81.2818 0005837  24.2094 139.9493  1.00273442105716
INMARSAT 4-F3           
1 33278U 08039A   26166.52476679 -.00000141  00000+0  00000+0 0  9995
2 33278   4.2912  31.6212 0002859  55.8115 267.2906  1.00271993 46528
